satname,norad_id,inclination_deg,eccentricity,mean_motion_rev_per_day,perigee_km,apogee_km,l1,l2
STARLINK-1522,46027,53.0547,0.000138,15.06407148,546.2339553566453,548.1453455121646,1 46027U 20055A   26040.83003005  .00002519  00000+0  18790-3 0  9996,2 46027  53.0547 251.6835 0001380  92.5636 267.5511 15.06407148304682
STARLINK-1523,46028,53.0551,0.0001423,15.06406795,546.2052581839098,548.1762064565291,1 46028U 20055B   26040.84477703 -.00002538  00000+0 -15153-3 0  9991,2 46028  53.0551 251.6121 0001423 104.3152 255.7995 15.06406795304704
STARLINK-1526,46029,53.054,0.0001584,15.06399238,546.1169177780057,548.3108689410219,1 46029U 20055C   26040.97011373  .00002435  00000+0  18232-3 0  9998,2 46029  53.0540 251.0525 0001584  96.9436 263.1733 15.06399238304711
STARLINK-1555,46032,53.0557,0.0001222,15.06401238,546.3614865190639,548.0540407792996,1 46032U 20055F   26040.82266187  .00000493  00000+0  52011-4 0  9997,2 46032  53.0557 251.7176 0001222  88.9960 271.1169 15.06401238304697
STARLINK-1556,46033,53.0549,0.0001456,15.06401013,546.2001229429243,548.2167835389082,1 46033U 20055G   26040.87057641  .00000005  00000+0  19221-4 0  9991,2 46033  53.0549 251.4995 0001456  90.5329 269.5827 15.06401013304673
STARLINK-1557,46034,53.0549,0.0001439,15.06409913,546.1846229020666,548.1777294731737,1 46034U 20055H   26041.00695955  .00001627  00000+0  12805-3 0  9995,2 46034  53.0549 250.8888 0001439  96.3893 263.7260 15.06409913304695
STARLINK-1558,46035,53.0539,0.0001618,15.06408202,546.0659027742668,548.3069374330134,1 46035U 20055J   26040.81529262  .00003451  00000+0  25040-3 0  9993,2 46035  53.0539 251.7419 0001618  81.4292 278.6880 15.06408202304695
STARLINK-1560,46036,53.0549,0.0001374,15.06397896,546.2664626248725,548.1695501806316,1 46036U 20055K   26040.99959952 -.00002440  00000+0 -14495-3 0  9997,2 46036  53.0549 250.9227 0001374  96.7926 263.3219 15.06397896304724
STARLINK-1567,46038,53.0558,0.0001425,15.06408617,546.198289794127,548.1720066063635,1 46038U 20055M   26040.94429348  .00000650  00000+0  62499-4 0  9992,2 46038  53.0558 251.1698 0001425  97.9357 262.1794 15.06408617304706
STARLINK-1569,46039,53.0555,0.0001742,15.06395881,546.0177841908744,548.430580026722,1 46039U 20055N   26041.01801905 -.00000069  00000+0  14279-4 0  9993,2 46039  53.0555 250.8385 0001742  90.7836 269.3352 15.06395881304716
STARLINK-1582,46043,53.0552,0.0001292,15.06398348,546.321865397128,548.1113767728166,1 46043U 20055S   26040.82635090  .00001046  00000+0  89090-4 0  9994,2 46043  53.0552 251.6997 0001292  97.5701 262.5434 15.06398348304685
STARLINK-1591,46045,53.0549,0.0001485,15.06413082,546.1430554757162,548.1998720894608,1 46045U 20055U   26040.98483813  .00001279  00000+0  10472-3 0  9992,2 46045  53.0549 250.9914 0001485  90.4954 269.6205 15.06413082304698
STARLINK-1524,46047,53.0551,0.0001392,15.06397603,546.2548948658941,548.1829139496813,1 46047U 20055W   26040.87150491  .00001428  00000+0  11472-3 0  9992,2 46047  53.0551 241.4997 0001392  96.0031 264.1116 15.06397603304831
STARLINK-1527,46048,53.056,0.0001481,15.06402342,546.1787369965014,548.230023113274,1 46048U 20055X   26040.86781321  .00000457  00000+0  49559-4 0  9993,2 46048  53.0560 241.5132 0001481  91.3089 268.8070 15.06402342304819
STARLINK-1540,46051,53.0557,0.000133,15.06415564,546.2427919166348,548.0849219445781,1 46051U 20055AA  26040.83462212  .00001872  00000+0  14444-3 0  9995,2 46051  53.0557 241.6572 0001330  84.7843 275.3298 15.06415564304843
STARLINK-1541,46052,53.0634,0.000254,15.08995242,537.5118958538314,541.0259380596453,1 46052U 20055AB  26041.58336806  .00041819  00000+0  26187-2 0  9999,2 46052  53.0634 238.2862 0002540 102.4429  88.8991 15.08995242  5737
STARLINK-1543,46053,53.0563,0.0001977,15.06372673,545.9261545554155,548.6644704917862,1 46053U 20055AC  26040.95628420  .00006884  00000+0  48096-3 0  9993,2 46053  53.0563 241.1169 0001977  95.7626 264.3588 15.06372673304851
STARLINK-1548,46054,53.0551,0.0001341,15.06408122,546.2579793863888,548.115351193419,1 46054U 20055AD  26040.96364671  .00000195  00000+0  31992-4 0  9997,2 46054  53.0551 241.0818 0001341  91.2033 268.9110 15.06408122304857
STARLINK-1554,46055,53.0539,0.000148,15.06404523,546.1727460944403,548.2226451643473,1 46055U 20055AE  26040.94891281  .00003635  00000+0  26276-3 0  9998,2 46055  53.0539 241.1519 0001480  92.8374 267.2785 15.06404523304853
STARLINK-1564,46058,53.055,0.0001462,15.06399722,546.199923884632,548.2248960521074,1 46058U 20055AH  26040.82732413  .00004030  00000+0  28926-3 0  9993,2 46058  53.0550 242.1734 0001462 121.9905 238.1226 15.06399722304821
STARLINK-1570,46059,53.055,0.000147,15.06404869,546.1786111503634,548.21465923911,1 46059U 20055AJ  26040.98944898  .00001556  00000+0  12329-3 0  9993,2 46059  53.0550 240.9690 0001470  99.7418 260.3737 15.06404869304811
STARLINK-1572,46060,53.056,0.0001314,15.06397848,546.3081618490123,548.1281451833556,1 46060U 20055AK  26040.98576621  .00000085  00000+0  24625-4 0  9999,2 46060  53.0560 240.9844 0001314  91.6283 268.4856 15.06397848304823
STARLINK-1573,46061,53.0544,0.0001449,15.06401903,546.2022433625707,548.2092076844283,1 46061U 20055AL  26041.51286247  .00002580  00000+0  19205-3 0  9991,2 46061  53.0544 238.6568 0001449  80.9822 279.1331 15.06401903304939
STARLINK-1577,46063,53.0545,0.000136,15.06398265,546.2750273414313,548.1587235955585,1 46063U 20055AN  26040.87518645  .00001059  00000+0  89972-4 0  9990,2 46063  53.0545 241.4892 0001360  92.1733 267.9412 15.06398265304832
STARLINK-1583,46064,53.0555,0.0001419,15.06403047,546.219513702642,548.1849249730903,1 46064U 20055AP  26040.77566694  .00000394  00000+0  45323-4 0  9990,2 46064  53.0555 241.9251 0001419 102.5770 257.5378 15.06403047304820
STARLINK-1525,46066,53.0543,9.2e-05,15.06382113,546.6292424486192,547.9035166704571,1 46066U 20055AR  26041.50363908 -.00001832  00000+0 -10419-3 0  9994,2 46066  53.0543 218.6525 0000920  97.5646 262.5447 15.06382113305201
STARLINK-1536,46070,53.0555,0.0001292,15.06399086,546.3196038224423,548.1091146136641,1 46070U 20055AV  26041.48151908  .00001791  00000+0  13913-3 0  9995,2 46070  53.0555 218.7593 0001292  87.8497 272.2640 15.06399086305215
STARLINK-1542,46073,53.0571,0.0001481,15.06402973,546.1768033644821,548.2280889084277,1 46073U 20055AY  26040.94337878 -.00000113  00000+0  11306-4 0  9993,2 46073  53.0571 221.1730 0001481  95.4791 264.6367 15.06402973305120
